{"type": "FeatureCollection", "features": [ {"type": "Feature", "properties": {"norad_id": 34375, "name": "IRIDIUM 33 DEB", "group": "iridium-33-debris", "lat": -31.611664671251678, "lon": 6.043208441658754, "alt_km": 819.4941261208014, "timestamp": "2025-12-09T21:34:11.794121+00:00", "meta": {"OBJECT_NAME": "IRIDIUM 33 DEB", "OBJECT_ID": "1997-051FT", "EPOCH": "2025-12-09T12:12:31.902912", "MEAN_MOTION": 14.17984003, "ECCENTRICITY": 0.01030688, "INCLINATION": 86.4325, "RA_OF_ASC_NODE": 183.9999, "ARG_OF_PERICENTER": 136.8871, "MEAN_ANOMALY": 243.7031, "EPHEMERIS_TYPE": 0, "CLASSIFICATION_TYPE": "U", "NORAD_CAT_ID": 34375, "ELEMENT_SET_NO": 999, "REV_AT_EPOCH": 86666, "BSTAR": 0.00067002905, "MEAN_MOTION_DOT": 1.464e-05, "MEAN_MOTION_DDOT": 0}, "tle": {"line1": "1 34375U 97051FT  25343.50870258  .00001464  00000+0  67003-3 0  9999", "line2": "2 34375  86.4325 183.9999 0103068 136.8871 243.7031 14.17984003866661"}}, "geometry": {"type": "Point", "coordinates": [6.043208441658754, -31.611664671251678]}}, {"type": "Feature", "properties": {"norad_id": 34376, "name": "IRIDIUM 33 DEB", "group": "iridium-33-debris", "lat": 52.182794940423555, "lon": -176.96772919235138, "alt_km": 667.8629104489801, "timestamp": "2025-12-09T21:34:11.794132+00:00", "meta": {"OBJECT_NAME": "IRIDIUM 33 DEB", "OBJECT_ID": "1997-051FU", "EPOCH": "2025-12-09T01:16:56.150688", "MEAN_MOTION": 14.62483707, "ECCENTRICITY": 0.00267298, "INCLINATION": 86.2984, "RA_OF_ASC_NODE": 8.1966, "ARG_OF_PERICENTER": 179.1594, "MEAN_ANOMALY": 180.9667, "EPHEMERIS_TYPE": 0, "CLASSIFICATION_TYPE": "U", "NORAD_CAT_ID": 34376, "ELEMENT_SET_NO": 999, "REV_AT_EPOCH": 87953, "BSTAR": 0.0016761111, "MEAN_MOTION_DOT": 8.56e-05, "MEAN_MOTION_DDOT": 0}, "tle": {"line1": "1 34376U 97051FU  25343.05342767  .00008560  00000+0  16761-2 0  9997", "line2": "2 34376  86.2984   8.1966 0026729 179.1594 180.9667 14.62483707879535"}}, "geometry": {"type": "Point", "coordinates": [-176.96772919235138, 52.182794940423555]}}, {"type": "Feature", "properties": {"norad_id": 34486, "name": "IRIDIUM 33 DEB", "group": "iridium-33-debris", "lat": 5.490254822526109, "lon": 13.68342746248047, "alt_km": 586.9966937184045, "timestamp": "2025-12-09T21:34:11.794142+00:00", "meta": {"OBJECT_NAME": "IRIDIUM 33 DEB", "OBJECT_ID": "1997-051GB", "EPOCH": "2025-12-09T02:32:24.432576", "MEAN_MOTION": 14.95535062, "ECCENTRICITY": 0.00133768, "INCLINATION": 86.394, "RA_OF_ASC_NODE": 13.7018, "ARG_OF_PERICENTER": 124.1656, "MEAN_ANOMALY": 295.4203, "EPHEMERIS_TYPE": 0, "CLASSIFICATION_TYPE": "U", "NORAD_CAT_ID": 34486, "ELEMENT_SET_NO": 999, "REV_AT_EPOCH": 88932, "BSTAR": 0.0024815535, "MEAN_MOTION_DOT": 0.00027645, "MEAN_MOTION_DDOT": 0}, "tle": {"line1": "1 34486U 97051GB  25343.10583834  .00027645  00000+0  24816-2 0  9992", "line2": "2 34486  86.3940  13.7018 0013376 124.1656 295.4203 14.95535062889327"}}, "geometry": {"type": "Point", "coordinates": [13.68342746248047, 5.490254822526109]}}, {"type": "Feature", "properties": {"norad_id": 34487, "name": "IRIDIUM 33 DEB", "group": "iridium-33-debris", "lat": -17.50611040832878, "lon": -165.2438443465676, "alt_km": 741.3565874750147, "timestamp": "2025-12-09T21:34:11.794152+00:00", "meta": {"OBJECT_NAME": "IRIDIUM 33 DEB", "OBJECT_ID": "1997-051GC", "EPOCH": "2025-12-09T13:02:34.225152", "MEAN_MOTION": 14.43210481, "ECCENTRICITY": 0.00325119, "INCLINATION": 86.3437, "RA_OF_ASC_NODE": 13.7534, "ARG_OF_PERICENTER": 138.4388, "MEAN_ANOMALY": 13.878, "EPHEMERIS_TYPE": 0, "CLASSIFICATION_TYPE": "U", "NORAD_CAT_ID": 34487, "ELEMENT_SET_NO": 999, "REV_AT_EPOCH": 88202, "BSTAR": 0.00032204324, "MEAN_MOTION_DOT": 1.109e-05, "MEAN_MOTION_DDOT": 0}, "tle": {"line1": "1 34487U 97051GC  25343.54345168  .00001109  00000+0  32204-3 0  9995", "line2": "2 34487  86.3437  13.7534 0032511 138.4388  13.8780 14.43210481882024"}}, "geometry": {"type": "Point", "coordinates": [-165.2438443465676, -17.50611040832878]}}, {"type": "Feature", "properties": {"norad_id": 34488, "name": "IRIDIUM 33 DEB", "group": "iridium-33-debris", "lat": 10.067760550402307, "lon": -52.12705851546678, "alt_km": 475.8094596902474, "timestamp": "2025-12-09T21:34:11.794162+00:00", "meta": {"OBJECT_NAME": "IRIDIUM 33 DEB", "OBJECT_ID": "1997-051GD", "EPOCH": "2025-12-09T15:14:24.291168", "MEAN_MOTION": 15.28228201, "ECCENTRICITY": 0.00141129, "INCLINATION": 86.3246, "RA_OF_ASC_NODE": 307.3494, "ARG_OF_PERICENTER": 56.5071, "MEAN_ANOMALY": 303.7523, "EPHEMERIS_TYPE": 0, "CLASSIFICATION_TYPE": "U", "NORAD_CAT_ID": 34488, "ELEMENT_SET_NO": 999, "REV_AT_EPOCH": 89192, "BSTAR": 0.005927931, "MEAN_MOTION_DOT": 0.00166796, "MEAN_MOTION_DDOT": 0}, "tle": {"line1": "1 34488U 97051GD  25343.63500337  .00166796  00000+0  59279-2 0  9991", "line2": "2 34488  86.3246 307.3494 0014112  56.5071 303.7523 15.28228201891924"}}, "geometry": {"type": "Point", "coordinates": [-52.12705851546678, 10.067760550402307]}}, {"type": "Feature", "properties": {"norad_id": 34492, "name": "IRIDIUM 33 DEB", "group": "iridium-33-debris", "lat": 74.85524886181238, "lon": 142.60871056947192, "alt_km": 906.6848399434311, "timestamp": "2025-12-09T21:34:11.794172+00:00", "meta": {"OBJECT_NAME": "IRIDIUM 33 DEB", "OBJECT_ID": "1997-051GH", "EPOCH": "2025-12-09T11:35:07.823616", "MEAN_MOTION": 14.25591238, "ECCENTRICITY": 0.01894647, "INCLINATION": 86.4738, "RA_OF_ASC_NODE": 335.9453, "ARG_OF_PERICENTER": 248.7156, "MEAN_ANOMALY": 243.5947, "EPHEMERIS_TYPE": 0, "CLASSIFICATION_TYPE": "U", "NORAD_CAT_ID": 34492, "ELEMENT_SET_NO": 999, "REV_AT_EPOCH": 85012, "BSTAR": 0.0075389978, "MEAN_MOTION_DOT": 0.00021601, "MEAN_MOTION_DDOT": 0}, "tle": {"line1": "1 34492U 97051GH  25343.48272944  .00021601  00000+0  75390-2 0  9996", "line2": "2 34492  86.4738 335.9453 0189464 248.7156 243.5947 14.25591238850127"}}, "geometry": {"type": "Point", "coordinates": [142.60871056947192, 74.85524886181238]}}, {"type": "Feature", "properties": {"norad_id": 34497, "name": "IRIDIUM 33 DEB", "group": "iridium-33-debris", "lat": -34.14050598370543, "lon": 51.0857162246276, "alt_km": 754.1776706026894, "timestamp": "2025-12-09T21:34:11.794182+00:00", "meta": {"OBJECT_NAME": "IRIDIUM 33 DEB", "OBJECT_ID": "1997-051GN", "EPOCH": "2025-12-09T05:09:24.196032", "MEAN_MOTION": 14.27438084, "ECCENTRICITY": 0.0079165, "INCLINATION": 86.2781, "RA_OF_ASC_NODE": 53.9075, "ARG_OF_PERICENTER": 351.0726, "MEAN_ANOMALY": 63.0332, "EPHEMERIS_TYPE": 0, "CLASSIFICATION_TYPE": "U", "NORAD_CAT_ID": 34497, "ELEMENT_SET_NO": 999, "REV_AT_EPOCH": 86833, "BSTAR": 0.0009704, "MEAN_MOTION_DOT": 2.479e-05, "MEAN_MOTION_DDOT": 0}, "tle": {"line1": "1 34497U 97051GN  25343.21486338  .00002479  00000+0  97040-3 0  9995", "line2": "2 34497  86.2781  53.9075 0079165 351.0726  63.0332 14.27438084868338"}}, "geometry": {"type": "Point", "coordinates": [51.0857162246276, -34.14050598370543]}}, {"type": "Feature", "properties": {"norad_id": 34508, "name": "IRIDIUM 33 DEB", "group": "iridium-33-debris", "lat": 12.072902349375171, "lon": 104.62549844138103, "alt_km": 811.5265194219237, "timestamp": "2025-12-09T21:34:11.794193+00:00", "meta": {"OBJECT_NAME": "IRIDIUM 33 DEB", "OBJECT_ID": "1997-051GZ", "EPOCH": "2025-12-09T08:09:22.353120", "MEAN_MOTION": 14.38378471, "ECCENTRICITY": 0.00659121, "INCLINATION": 86.3702, "RA_OF_ASC_NODE": 104.0845, "ARG_OF_PERICENTER": 183.8965, "MEAN_ANOMALY": 176.1729, "EPHEMERIS_TYPE": 0, "CLASSIFICATION_TYPE": "U", "NORAD_CAT_ID": 34508, "ELEMENT_SET_NO": 999, "REV_AT_EPOCH": 87260, "BSTAR": 0.0023049573, "MEAN_MOTION_DOT": 7.224e-05, "MEAN_MOTION_DDOT": 0}, "tle": {"line1": "1 34508U 97051GZ  25343.33984205  .00007224  00000+0  23050-2 0  9999", "line2": "2 34508  86.3702 104.0845 0065912 183.8965 176.1729 14.38378471872605"}}, "geometry": {"type": "Point", "coordinates": [104.62549844138103, 12.072902349375171]}}, {"type": "Feature", "properties": {"norad_id": 34521, "name": "IRIDIUM 33 DEB", "group": "iridium-33-debris", "lat": -64.38479463925358, "lon": 24.210742739577565, "alt_km": 689.313531075144, "timestamp": "2025-12-09T21:34:11.794203+00:00", "meta": {"OBJECT_NAME": "IRIDIUM 33 DEB", "OBJECT_ID": "1997-051HN", "EPOCH": "2025-12-09T10:22:36.054336", "MEAN_MOTION": 14.63320774, "ECCENTRICITY": 0.00012328, "INCLINATION": 86.3799, "RA_OF_ASC_NODE": 32.0038, "ARG_OF_PERICENTER": 237.8673, "MEAN_ANOMALY": 122.2419, "EPHEMERIS_TYPE": 0, "CLASSIFICATION_TYPE": "U", "NORAD_CAT_ID": 34521, "ELEMENT_SET_NO": 999, "REV_AT_EPOCH": 88424, "BSTAR": 0.0013249324, "MEAN_MOTION_DOT": 6.86e-05, "MEAN_MOTION_DDOT": 0}, "tle": {"line1": "1 34521U 97051HN  25343.43236174  .00006860  00000+0  13249-2 0  9994", "line2": "2 34521  86.3799  32.0038 0001232 237.8673 122.2419 14.63320774884243"}}, "geometry": {"type": "Point", "coordinates": [24.210742739577565, -64.38479463925358]}}, {"type": "Feature", "properties": {"norad_id": 34525, "name": "IRIDIUM 33 DEB", "group": "iridium-33-debris", "lat": -36.80531290409842, "lon": 45.33582956585511, "alt_km": 758.9578342078639, "timestamp": "2025-12-09T21:34:11.794213+00:00", "meta": {"OBJECT_NAME": "IRIDIUM 33 DEB", "OBJECT_ID": "1997-051HS", "EPOCH": "2025-12-09T15:47:29.903136", "MEAN_MOTION": 14.42894832, "ECCENTRICITY": 0.00066996, "INCLINATION": 86.3728, "RA_OF_ASC_NODE": 48.159, "ARG_OF_PERICENTER": 102.4464, "MEAN_ANOMALY": 50.9886, "EPHEMERIS_TYPE": 0, "CLASSIFICATION_TYPE": "U", "NORAD_CAT_ID": 34525, "ELEMENT_SET_NO": 999, "REV_AT_EPOCH": 88043, "BSTAR": 0.00063201459, "MEAN_MOTION_DOT": 2.13e-05, "MEAN_MOTION_DDOT": 0}, "tle": {"line1": "1 34525U 97051HS  25343.65798499  .00002130  00000+0  63201-3 0  9995", "line2": "2 34525  86.3728  48.1590 0006699 102.4464  50.9886 14.42894832880437"}}, "geometry": {"type": "Point", "coordinates": [45.33582956585511, -36.80531290409842]}}]}